INTERCOSMOS 24          
1 20261U 89080A   25208.81716450  .00000788  00000+0  22243-3 0  9993
2 20261  82.6025 250.6351 1191152  94.5062 279.2762 12.59100261638496
SL-14 R/B               
1 20262U 89080C   25208.79152247  .00000163  00000+0  46542-4 0  9995
2 20262  82.5965 317.6090 1230650 338.8614  16.5528 12.50320431632048
DELTA 1 R/B             
1 20323U 89089B   25208.74087196  .00000322  00000+0  88510-4 0  9995
2 20323  97.0984  86.7049 0070766 112.7018 248.1680 14.50420756863122
ARIANE 40 R/B           
1 20443U 90005H   25209.20240618  .00000271  00000+0  10031-3 0  9995
2 20443  98.3436 271.1197 0010739 154.2622 205.9103 14.39662197860763
DELTA 2 R/B(1)          
1 20453U 90008B   25208.62054780  .00031530  00000+0  67790-3 0  9993
2 20453  35.6080 184.8228 0132943   4.8810 355.3187 15.34743232891334
COSMOS 2058             
1 20465U 90010A   25209.22842851  .00002903  00000+0  18127-3 0  9992
2 20465  82.4739 268.0816 0008308  36.7559 323.4238 15.09104520929470
SL-14 R/B               
1 20466U 90010B   25209.20358620  .00000433  00000+0  49917-4 0  9995
2 20466  82.5034 118.1871 0018980 323.5712  36.4210 14.83291417916268
SL-14 R/B               
1 20511U 90018B   25209.14101955  .00000373  00000+0  44119-4 0  9996
2 20511  82.5195  72.9498 0017789 109.3668 250.9471 14.81872762910414
HST                     
1 20580U 90037B   25208.93376480  .00006389  00000+0  23552-3 0  9996
2 20580  28.4677 128.6452 0001930 176.4393 183.6216 15.25684612738910
SL-16 R/B               
1 20625U 90046B   25208.89393797  .00000108  00000+0  80518-4 0  9990
2 20625  70.9984  50.0070 0016202 283.9783  75.9538 14.14967535816598
COSMOS 2084             
1 20663U 90055A   25208.90858904  .00003402  00000+0  25271-3 0  9994
2 20663  62.7916  21.1860 0054681 158.7692 201.5694 15.03868990902490
SL-6 R/B(2)             
1 20666U 90055D   25208.60929952  .00002027  00000+0  16747-3 0  9996
2 20666  62.7847 298.3999 0020161 203.4785 156.5395 15.02179139903839
SL-8 R/B                
1 20775U 90078B   25208.75546593  .00020668  00000+0  67171-3 0  9992
2 20775  82.9063  92.0900 0399419  45.5586 317.7577 14.79408115775937
SL-8 R/B                
1 21088U 91006B   25208.89708211  .00000101  00000+0  86735-4 0  9992
2 21088  82.9453 337.2682 0021308 306.8464 175.8523 13.77466354733121
OKEAN-3                 
1 21397U 91039A   25208.91470517  .00003332  00000+0  24546-3 0  9999
2 21397  82.5170 194.2957 0015169  22.4894 337.6994 15.02953213831256
COSMOS 2151             
1 21422U 91042A   25209.20631926  .00001846  00000+0  15007-3 0  9998
2 21422  82.4984 299.9678 0014108  98.0271 262.2554 14.98974494850704
SL-14 R/B               
1 21423U 91042B   25208.87753202  .00000340  00000+0  40265-4 0  9996
2 21423  82.4911  70.9792 0015602 259.1805 100.7653 14.81570797819781
ERS-1                   
1 21574U 91050A   25208.95091524  .00000261  00000+0  98615-4 0  9997
2 21574  98.7924 216.5057 0032708 147.1246 213.1984 14.39220417783404
ARIANE 40 R/B           
1 21610U 91050F   25208.77299302  .00000309  00000+0  10554-3 0  9990
2 21610  98.2369 264.0214 0003975  52.6932 307.4621 14.42662575786566
INTERCOSMOS 25          
1 21819U 91086A   25208.87700050  .00000534  00000+0  10574-3 0  9990
2 21819  82.6029  85.8622 1489499 241.2882 103.0641 12.11126276469465
SL-8 R/B                
1 21876U 92008B   25208.86786767  .00000111  00000+0  97980-4 0  9994
2 21876  82.9246  74.9823 0035734  44.1829 326.7154 13.75938659678500
SL-8 R/B                
1 21938U 92020B   25208.86375869  .00000101  00000+0  89488-4 0  9997
2 21938  82.9332 320.7312 0028614 202.8669 277.7805 13.75516938670225
USA 81                  
1 21949U 92023A   25209.19707879  .00000156  00000+0  50434-4 0  9998
2 21949  85.0053 260.9162 0002485  75.5764 284.5704 14.32256095 62653
COSMOS 2219             
1 22219U 92076A   25208.92290570 -.00000188  00000+0 -74164-4 0  9995
2 22219  71.0612 127.9176 0018284 191.7326 168.3373 14.14036757686605
SL-16 R/B               
1 22220U 92076B   25208.70913417 -.00000134  00000+0 -43106-4 0  9998
2 22220  71.0011 302.2761 0010631  75.3779  76.3921 14.16810589689969
COSMOS 2221             
1 22236U 92080A   25209.17193166  .00001760  00000+0  15848-3 0  9998
2 22236  82.5061 133.8988 0013311 222.2481 137.7716 14.95007731768289
SL-16 R/B               
1 22285U 92093B   25208.93405798  .00000143  00000+0  97854-4 0  9998
2 22285  71.0215 116.0741 0006301 283.2123  76.8297 14.15399512681350
COSMOS 2228             
1 22286U 92094A   25209.19501078  .00001828  00000+0  16081-3 0  9990
2 22286  82.5172  92.0359 0018119 342.9429  17.1181 14.95861821763558
SL-16 R/B               
1 22566U 93016B   25208.74009442  .00000019  00000+0  34129-4 0  9999
2 22566  71.0090 327.6275 0012072 299.5850  60.4069 14.15260377670343
COSMOS 2242             
1 22626U 93024A   25208.81890797  .00002040  00000+0  18245-3 0  9990
2 22626  82.5204 121.5676 0016361 347.8332  12.2492 14.95309986746771
SL-16 R/B               
1 22803U 93059B   25208.88363714  .00000183  00000+0  11460-3 0  9994
2 22803  70.9905 125.1831 0017782 199.8013 160.2423 14.17180998647681
ARIANE 40 R/B           
1 22830U 93061H   25209.17969313  .00000217  00000+0  95733-4 0  9991
2 22830  98.5248 277.0884 0009939 223.9176 136.1219 14.32682457662200
COSMOS 2278             
1 23087U 94023A   25208.61982128  .00000198  00000+0  12811-3 0  9995
2 23087  71.0529 285.9626 0008539 359.5672   0.5442 14.14303947613232
SL-16 R/B               
1 23088U 94023B   25208.91168335 -.00000036  00000+0  58376-5 0  9995
2 23088  70.9979 182.9244 0005520 274.8554  85.1938 14.14969962614298
SL-16 R/B               
1 23343U 94074B   25208.89112475  .00000442  00000+0  66341-4 0  9996
2 23343  97.7373 243.5217 0005546 224.1195 263.0793 14.79079746654011
SL-16 R/B               
1 23405U 94077B   25208.91026785 -.00000029  00000+0  97569-5 0  9998
2 23405  70.9826 105.3698 0002308 198.7003 161.4035 14.15520481584425
ARIANE 40+ R/B          
1 23561U 95021B   25208.78269196  .00000286  00000+0  10563-3 0  9992
2 23561  98.4816 277.9197 0007990  96.0058  14.7264 14.39557031586887
SL-16 R/B               
1 23705U 95058B   25208.69410359  .00000296  00000+0  17556-3 0  9991
2 23705  71.0223 292.6167 0010506 105.1185 255.1101 14.15455406536015
SL-16 R/B               
1 24298U 96051B   25208.66870982 -.00000141  00000+0 -49588-4 0  9994
2 24298  70.7656 291.4931 0013320 110.8997 249.3550 14.12405012489875
ORBVIEW 2 (SEASTAR)     
1 24883U 97037A   25208.89028246  .00000268  00000+0  10974-3 0  9996
2 24883  98.8312   2.6213 0002484  29.6914 330.4411 14.35275956476225
SL-16 R/B               
1 25400U 98043G   25208.85229776  .00000057  00000+0  42699-4 0  9993
2 25400  98.7891 156.0837 0009015 311.3990  48.6414 14.25980193406948
SL-16 R/B               
1 25407U 98045B   25208.67396839 -.00000191  00000+0 -72440-4 0  9995
2 25407  71.0122 294.7624 0007597 350.3499   9.7477 14.16147608395243
ISS (ZARYA)             
1 25544U 98067A   25209.13279725  .00012211  00000+0  22036-3 0  9996
2 25544  51.6347 104.1294 0001992 125.2997 234.8178 15.50161265521514
CZ-4B R/B               
1 25732U 99025C   25208.76214365  .00000072  00000+0  55688-4 0  9999
2 25732  98.6972 252.9526 0036019 271.6146 200.8234 14.18200026356286
OKEAN-O                 
1 25860U 99039A   25208.86731610  .00000659  00000+0  94399-4 0  9997
2 25860  97.9807 265.6113 0001343  68.3387 291.7967 14.79857224401222
SL-16 R/B               
1 25861U 99039B   25208.86219411  .00000545  00000+0  76654-4 0  9996
2 25861  98.0333 262.8445 0013541 266.2211  93.7453 14.81326142403577
DELTA 2 R/B             
1 25876U 99041E   25208.89260807  .00002126  00000+0  38212-3 0  9997
2 25876  51.7612 118.4612 0506976  45.4209 318.6960 14.10873078331281
HELIOS 1B               
1 25977U 99064A   25209.18415479  .00001349  00000+0  15878-3 0  9993
2 25977  98.1894  99.7846 0002515  82.7684 277.3816 14.86584055383196
TERRA                   
1 25994U 99068A   25209.19766208  .00000433  00000+0  97882-4 0  9995
2 25994  97.9955 265.7620 0002877 144.2265 283.0132 14.60744506362424
SL-16 R/B               
1 26070U 00006B   25208.70182720 -.00000020  00000+0  14072-4 0  9995
2 26070  70.9997 210.8885 0016135 171.7782 188.3609 14.15778012316718
TITAN 4B R/B            
1 26474U 00047B   25208.85159716  .00002934  00000+0  19714-3 0  9995
2 26474  67.9914 311.6629 0047876 291.2467  68.3571 15.07414660359003
ENVISAT                 
1 27386U 02009A   25208.95878950  .00000109  00000+0  49029-4 0  9992
2 27386  98.3360 163.3812 0001287  83.4970  31.6811 14.38930898226856
IDEFIX & ARIANE 42P R/B 
1 27422U 02021B   25208.82656062  .00000245  00000+0  10981-3 0  9996
2 27422  98.5608 145.4737 0012746 125.8691 234.3677 14.30814803211860
AQUA                    
1 27424U 02022A   25209.15835174  .00000885  00000+0  18881-3 0  9996
2 27424  98.3802 168.0317 0000730  75.9093  14.1916 14.61368880235973
CZ-4B R/B               
1 27432U 02024C   25208.87522307  .00000035  00000+0  41480-4 0  9995
2 27432  98.9209 257.9539 0049262 301.8261 231.9329 14.14492863197458
MIDORI II (ADEOS-II)    
1 27597U 02056A   25208.86146476  .00000263  00000+0  12162-3 0  9997
2 27597  98.7397 161.2863 0000615  26.4081 333.7132 14.29074641178180
H-2A R/B                
1 27601U 02056E   25208.90582591  .00000286  00000+0  11471-3 0  9997
2 27601  98.2820 173.3373 0071628 111.1685 309.9209 14.33531943181908
CZ-4B R/B               
1 28059U 03049C   25208.90232541  .00000301  00000+0  81157-4 0  9992
2 28059  98.6620 190.3698 0048053 196.3898 163.5746 14.54715203153910
CZ-2C R/B               
1 28222U 04012C   25208.84390021  .00021727  00000+0  44390-3 0  9998
2 28222  97.7626 251.0792 0023282  53.9841 306.3561 15.45888978169360
